ATLAS CENTAUR 2         
1 00694U 63047A   26192.16915560  .00000790  00000+0  85613-4 0  9994
2 00694  30.3509 225.2747 0545718  89.0168 277.2881 14.12560743149093
THOR AGENA D R/B        
1 00733U 64002A   26191.94878539  .00000080  00000+0  46013-4 0  9992
2 00733  99.1154 211.9624 0031755 259.3394 100.4212 14.34074905255969
SL-3 R/B                
1 00877U 64053B   26191.39120963  .00000065  00000+0  36851-4 0  9999
2 00877  65.0780 331.4748 0080422 253.8370 105.3868 14.61438029284726
SL-8 R/B                
1 02802U 67045B   26191.19847437  .00000153  00000+0  49962-4 0  9998
2 02802  74.0113 119.2813 0063018  97.3412 263.4914 14.45693803106727
SL-8 R/B                
1 03230U 68040B   26192.13140726  .00001539  00000+0  11401-3 0  9997
2 03230  74.0292  61.3176 0025273 210.1545 149.8191 15.03928907108562
OAO 2                   
1 03597U 68110A   26191.30258050  .00000117  00000+0  36524-4 0  9994
2 03597  34.9940 300.6130 0004842 101.0694 259.0542 14.47360802 36873
ISIS 1                  
1 03669U 69009A   26191.29404518  .00000041  00000+0  23884-4 0  9993
2 03669  88.4449 141.8620 1707051 201.5501 150.4416 11.30436169362387
SERT 2                  
1 04327U 70009A   26191.32140953 -.00000027  00000+0  19989-4 0  9997
2 04327  99.2841 127.7932 0004344 202.3686 309.3539 13.58740749796545
SL-3 R/B                
1 05118U 71028B   26192.13337705  .00039660  00000+0  29921-3 0  9991
2 05118  81.2318 258.3244 0014499 196.1994 163.8804 15.72146198  8006
ASTEX 1                 
1 05560U 71089A   26192.00461542  .00000193  00000+0  49065-4 0  9993
2 05560  92.7003 191.5263 0016836  35.6249 324.6077 14.50869496880185
SL-8 R/B                
1 05730U 71119B   26191.78371150  .00004251  00000+0  21860-3 0  9996
2 05730  73.8883 305.2241 0542960 246.4476 107.8768 14.39698667673192
OAO 3 (COPERNICUS)      
1 06153U 72065A   26191.41380958  .00000170  00000+0  39137-4 0  9996
2 06153  35.0067 318.0617 0005918  83.1548 313.4466 14.60073340864144
ATLAS CENTAUR R/B       
1 06155U 72065B   26191.31390766  .00000512  00000+0  72529-4 0  9997
2 06155  35.0024 306.9591 0034024 321.9423  37.8876 14.77961812859415
SL-8 R/B                
1 08459U 75112B   26191.34234877  .00000136  00000+0  53171-4 0  9999
2 08459  74.0602 153.2754 0016373 216.9313 143.0715 14.38256404649501
SL-3 R/B                
1 10114U 77057B   26192.13260605  .00006996  00000+0  13402-3 0  9998
2 10114  97.5847   9.8428 0006778 184.4992 175.6198 15.48356666687418
SEASAT 1                
1 10967U 78064A   26190.99580225  .00000071  00000+0  58254-4 0  9991
2 10967 108.0184  22.1698 0001198 249.4991 110.6026 14.46258213524195
SL-14 R/B               
1 11267U 79011B   26192.11762924  .00000320  00000+0  28909-4 0  9993
2 11267  82.5250 339.4422 0016172  10.7530 349.4032 14.92035816547180
SL-8 R/B                
1 11574U 79089B   26192.06360419  .00000109  00000+0  40978-4 0  9991
2 11574  74.0670 222.6578 0015842 358.6056   1.5054 14.42413994453894
SL-14 R/B               
1 11672U 80005B   26191.94362517  .00000293  00000+0  26977-4 0  9994
2 11672  82.5134 190.3044 0017229 110.4331 249.8740 14.91047766494856
SL-8 R/B                
1 12139U 81003B   26190.68194238  .00013322  00000+0  31727-3 0  9990
2 12139  82.9371 176.8618 0250178 112.7897 249.9977 15.14933576333126
SL-3 R/B                
1 12465U 81046B   26192.16111156  .00007747  00000+0  16450-3 0  9992
2 12465  81.2305 141.1785 0015998 312.5402  47.4491 15.44718929457471
SL-3 R/B                
1 12904U 81103B   26192.17583948  .00002205  00000+0  94005-4 0  9994
2 12904  81.1579  68.4467 0011791 226.2958 133.7299 15.22470750992015
SL-3 R/B                
1 13068U 82013B   26192.20556522  .00002451  00000+0  10257-3 0  9998
2 13068  81.1732  15.8598 0022813 121.3015 239.0456 15.22943377423143
SL-3 R/B                
1 13154U 82039B   26192.14567647  .00002058  00000+0  12188-3 0  9993
2 13154  81.1505  73.4086 0027906 272.4675  87.3355 15.10683635400273
SL-3 R/B                
1 13403U 82079B   26192.11717845  .00003052  00000+0  11665-3 0  9992
2 13403  81.1450  47.1767 0024969 106.6991 253.6987 15.25989434396510
SL-14 R/B               
1 13553U 82092B   26191.08627046  .00000257  00000+0  26025-4 0  9992
2 13553  82.5667  26.8725 0018792 253.9142 256.5994 14.86762660347118
SL-3 R/B                
1 13819U 83010B   26192.01677490  .00008876  00000+0  15817-3 0  9991
2 13819  81.1001 210.6018 0013640 339.1766  20.8923 15.49836745377027
SL-3 R/B                
1 14208U 83075B   26192.16452421  .00006383  00000+0  15612-3 0  9990
2 14208  97.6105 201.6551 0021888 143.2016 217.0737 15.40928799349152
COSMOS 1536             
1 14699U 84013A   26191.51893051  .00004368  00000+0  17178-3 0  9993
2 14699  82.5449 345.6008 0013497 205.0464 155.0121 15.25308395291338
SL-14 R/B               
1 14820U 84027B   26191.31024980  .00000268  00000+0  27841-4 0  9993
2 14820  82.5430 130.0342 0016415 289.3223  70.6218 14.86077129265842
SL-8 R/B                
1 15483U 85006B   26190.02099968  .00000116  00000+0  47311-4 0  9998
2 15483  74.0450  37.8842 0019265 281.8181 238.1093 14.37843035171460
