OBJECT_NAME,OBJECT_ID,EPOCH,MEAN_MOTION,ECCENTRICITY,INCLINATION,RA_OF_ASC_NODE,ARG_OF_PERICENTER,MEAN_ANOMALY,EPHEMERIS_TYPE,CLASSIFICATION_TYPE,NORAD_CAT_ID,ELEMENT_SET_NO,REV_AT_EPOCH,BSTAR,MEAN_MOTION_DOT,MEAN_MOTION_DDOT
ATLAS CENTAUR 2,1963-047A,2026-07-11T04:03:35.043840,14.12560743,.0545718,30.3509,225.2747,89.0168,277.2881,0,U,694,999,14909,.85613E-4,.79E-5,0
THOR AGENA D R/B,1964-002A,2026-07-10T22:46:15.057696,14.34074905,.0031755,99.1154,211.9624,259.3394,100.4212,0,U,733,999,25596,.46013E-4,.8E-6,0
SL-3 R/B,1964-053B,2026-07-10T09:23:20.512032,14.61438029,.00804222,65.0780,331.4748,253.8370,105.3868,0,U,877,999,28472,.36851331E-4,.65E-6,0
SL-8 R/B,1967-045B,2026-07-10T04:45:48.185568,14.45693803,.00630187,74.0113,119.2813,97.3412,263.4914,0,U,2802,999,10672,.49962137E-4,.153E-5,0
SL-8 R/B,1968-040B,2026-07-11T03:09:13.587264,15.03928907,.0025273,74.0292,61.3176,210.1545,149.8191,0,U,3230,999,10856,.11401E-3,.1539E-4,0
OAO 2,1968-110A,2026-07-10T07:15:42.955200,14.47360802,.00048421,34.9940,300.6130,101.0694,259.0542,0,U,3597,999,3687,.36524304E-4,.117E-5,0
ISIS 1,1969-009A,2026-07-10T07:03:25.503552,11.30436169,.1707051,88.4449,141.8620,201.5501,150.4416,0,U,3669,999,36238,.23884374E-4,.41E-6,0
SERT 2,1970-009A,2026-07-10T07:42:49.783392,13.58740749,.00043444,99.2841,127.7932,202.3686,309.3539,0,U,4327,999,79654,.19989161E-4,-.27E-6,0
SL-3 R/B,1971-028B,2026-07-11T03:12:03.777120,15.72146198,.0014499,81.2318,258.3244,196.1994,163.8804,0,U,5118,999,800,.29921E-3,.3966E-3,0
ASTEX 1,1971-089A,2026-07-11T00:06:38.772288,14.50869496,.0016836,92.7003,191.5263,35.6249,324.6077,0,U,5560,999,88018,.49065E-4,.193E-5,0
SL-8 R/B,1971-119B,2026-07-10T18:48:32.673600,14.39698667,.054296,73.8883,305.2241,246.4476,107.8768,0,U,5730,999,67319,.2186E-3,.4251E-4,0
OAO 3 (COPERNICUS),1972-065A,2026-07-10T09:55:53.147712,14.60073340,.0005918,35.0067,318.0617,83.1548,313.4466,0,U,6153,999,86414,.39136794E-4,.17E-5,0
ATLAS CENTAUR R/B,1972-065B,2026-07-10T07:32:01.621824,14.77961812,.00340243,35.0024,306.9591,321.9423,37.8876,0,U,6155,999,85941,.72528531E-4,.512E-5,0
SL-8 R/B,1975-112B,2026-07-10T08:12:58.933728,14.38256404,.0016373,74.0602,153.2754,216.9313,143.0715,0,U,8459,999,64950,.53171483E-4,.136E-5,0
SL-3 R/B,1977-057B,2026-07-11T03:10:57.162720,15.48356666,.0006778,97.5847,9.8428,184.4992,175.6198,0,U,10114,999,68741,.13402E-3,.6996E-4,0
SEASAT 1,1978-064A,2026-07-09T23:53:57.314400,14.46258213,.00011983,108.0184,22.1698,249.4991,110.6026,0,U,10967,999,52419,.58253768E-4,.71E-6,0
SL-14 R/B,1979-011B,2026-07-11T02:49:23.166336,14.92035816,.0016172,82.5250,339.4422,10.7530,349.4032,0,U,11267,999,54718,.28909E-4,.32E-5,0
SL-8 R/B,1979-089B,2026-07-11T01:31:35.402016,14.42413994,.0015842,74.0670,222.6578,358.6056,1.5054,0,U,11574,999,45389,.40978E-4,.109E-5,0
SL-14 R/B,1980-005B,2026-07-10T22:38:49.214688,14.91047766,.0017229,82.5134,190.3044,110.4331,249.8740,0,U,11672,999,49485,.26977E-4,.293E-5,0
SL-8 R/B,1981-003B,2026-07-09T16:21:59.821632,15.14933576,.02501789,82.9371,176.8618,112.7897,249.9977,0,U,12139,999,33312,.31727007E-3,.13322E-3,0
SL-3 R/B,1981-046B,2026-07-11T03:52:00.038784,15.44718929,.0015998,81.2305,141.1785,312.5402,47.4491,0,U,12465,999,45747,.1645E-3,.7747E-4,0
SL-3 R/B,1981-103B,2026-07-11T04:13:12.531072,15.22470750,.0011791,81.1579,68.4467,226.2958,133.7299,0,U,12904,999,99201,.94005E-4,.2205E-4,0
SL-3 R/B,1982-013B,2026-07-11T04:56:00.835008,15.22943377,.0022813,81.1732,15.8598,121.3015,239.0456,0,U,13068,999,42314,.10257E-3,.2451E-4,0
SL-3 R/B,1982-039B,2026-07-11T03:29:46.447008,15.10683635,.0027906,81.1505,73.4086,272.4675,87.3355,0,U,13154,999,40027,.12188E-3,.2058E-4,0
SL-3 R/B,1982-079B,2026-07-11T02:48:44.218080,15.25989434,.0024969,81.1450,47.1767,106.6991,253.6987,0,U,13403,999,39651,.11665E-3,.3052E-4,0
SL-14 R/B,1982-092B,2026-07-10T02:04:13.767744,14.86762660,.00187929,82.5667,26.8725,253.9142,256.5994,0,U,13553,999,34711,.26025496E-4,.257E-5,0
SL-3 R/B,1983-010B,2026-07-11T00:24:09.351360,15.49836745,.001364,81.1001,210.6018,339.1766,20.8923,0,U,13819,999,37702,.15817E-3,.8876E-4,0
SL-3 R/B,1983-075B,2026-07-11T03:56:54.891744,15.40928799,.0021888,97.6105,201.6551,143.2016,217.0737,0,U,14208,999,34915,.15612E-3,.6383E-4,0
COSMOS 1536,1984-013A,2026-07-10T12:27:15.596064,15.25308395,.0013497,82.5449,345.6008,205.0464,155.0121,0,U,14699,999,29133,.17178E-3,.4368E-4,0
SL-14 R/B,1984-027B,2026-07-10T07:26:45.582720,14.86077129,.00164152,82.5430,130.0342,289.3223,70.6218,0,U,14820,999,26584,.27841345E-4,.268E-5,0
SL-8 R/B,1985-006B,2026-07-09T00:30:14.372352,14.37843035,.00192651,74.0450,37.8842,281.8181,238.1093,0,U,15483,999,17146,.47310842E-4,.116E-5,0
